{
  "type": "FeatureCollection",
  "name": "India_Exclusive_Economic_Zone",
  "crs": {
    "type": "name",
    "properties": {
      "name": "urn:ogc:def:crs:OGC:1.3:CRS84"
    }
  },
  "features": [
    {
      "type": "Feature",
      "properties": {
        "id": "EEZ-IND-MAINLAND",
        "name": "India (Mainland & Lakshadweep) EEZ",
        "sovereign": "India",
        "area_km2": 1641514,
        "unclos_type": "200 nautical miles Exclusive Economic Zone"
      },
      "geometry": {
        "type": "Polygon",
        "coordinates": [
          [
            [68.16, 23.63],
            [67.85, 23.45],
            [67.45, 23.20],
            [66.90, 22.90],
            [66.30, 22.50],
            [65.70, 22.05],
            [65.20, 21.60],
            [64.80, 21.10],
            [64.50, 20.50],
            [64.30, 19.80],
            [64.20, 19.10],
            [64.35, 18.30],
            [64.60, 17.50],
            [65.05, 16.70],
            [65.60, 15.90],
            [66.30, 15.10],
            [67.10, 14.30],
            [67.90, 13.50],
            [68.70, 12.70],
            [69.30, 12.00],
            [69.70, 11.20],
            [70.00, 10.40],
            [70.40, 9.60],
            [70.90, 8.80],
            [71.50, 8.10],
            [72.10, 7.50],
            [72.825, 7.158],
            [73.317, 7.125],
            [73.742, 7.042],
            [74.383, 6.883],
            [75.050, 6.700],
            [75.800, 6.450],
            [76.600, 5.950],
            [77.033, 5.500],
            [77.40, 5.00],
            [78.00, 5.20],
            [78.60, 5.50],
            [79.05, 5.75],
            [79.533, 6.000],
            [80.083, 6.400],
            [80.500, 7.000],
            [81.000, 7.667],
            [81.500, 8.367],
            [81.800, 9.100],
            [82.100, 9.700],
            [82.250, 10.350],
            [82.000, 10.750],
            [82.50, 11.20],
            [83.20, 11.80],
            [84.10, 12.60],
            [85.00, 13.50],
            [85.90, 14.50],
            [86.70, 15.50],
            [87.40, 16.50],
            [88.10, 17.50],
            [88.70, 18.50],
            [89.20, 19.50],
            [89.45, 20.30],
            [89.50, 20.80],
            [89.25, 21.15],
            [89.15, 21.45],
            [89.05, 21.65],
            [89.00, 21.75],
            [88.00, 21.60],
            [87.00, 21.40],
            [86.50, 20.60],
            [85.80, 19.80],
            [85.00, 19.30],
            [84.00, 18.50],
            [83.30, 17.70],
            [82.50, 17.00],
            [81.80, 16.20],
            [80.80, 15.30],
            [80.10, 14.00],
            [80.30, 13.10],
            [79.85, 12.00],
            [79.85, 10.80],
            [79.30, 9.30],
            [78.10, 8.80],
            [77.55, 8.08],
            [76.85, 8.50],
            [76.25, 9.90],
            [75.75, 11.25],
            [75.10, 12.10],
            [74.80, 12.90],
            [74.30, 14.00],
            [74.10, 14.80],
            [73.70, 15.50],
            [73.30, 16.80],
            [73.00, 18.00],
            [72.80, 18.90],
            [72.70, 20.00],
            [72.70, 21.10],
            [72.20, 21.70],
            [71.50, 21.00],
            [70.90, 20.70],
            [69.80, 20.90],
            [69.60, 21.60],
            [68.90, 22.20],
            [69.10, 22.75],
            [68.50, 23.20],
            [68.16, 23.63]
          ]
        ]
      }
    },
    {
      "type": "Feature",
      "properties": {
        "id": "EEZ-IND-ANDAMAN",
        "name": "India (Andaman & Nicobar Islands) EEZ",
        "sovereign": "India",
        "area_km2": 663629,
        "unclos_type": "200 nautical miles Exclusive Economic Zone"
      },
      "geometry": {
        "type": "Polygon",
        "coordinates": [
          [
            [93.433, 14.000],
            [93.300, 14.500],
            [93.100, 15.000],
            [92.800, 15.500],
            [92.10, 15.75],
            [91.30, 15.40],
            [90.60, 14.80],
            [90.00, 14.10],
            [89.50, 13.30],
            [89.10, 12.40],
            [88.85, 11.40],
            [88.80, 10.40],
            [88.90, 9.40],
            [89.20, 8.40],
            [89.70, 7.40],
            [90.30, 6.50],
            [91.00, 5.70],
            [91.80, 5.00],
            [92.60, 4.50],
            [93.633, 4.800],
            [94.400, 5.250],
            [95.000, 5.650],
            [95.450, 6.100],
            [95.700, 6.600],
            [95.60, 7.50],
            [95.35, 8.50],
            [95.00, 9.50],
            [94.60, 10.50],
            [94.25, 11.50],
            [93.95, 12.50],
            [93.70, 13.30],
            [93.55, 13.80],
            [93.433, 14.000]
          ]
        ]
      }
    }
  ]
}
